[
    {
        "Altitude(m)": 612513.9496074925,
        "Argument of Periapsis(deg)": 0.0,
        "Eccentricity": 0.0,
        "Inclination(deg)": 60.0,
        "Latitude(deg)": -28.136021492409768,
        "Longitude(deg)": -132.0869249597627,
        "Mean Anomaly(deg)": 212.7273,
        "RAAN(deg)": 130.0,
        "Satellite Name": "Test1 585",
        "Satellite Number": 585,
        "Semi-Major Axis(m)": 6980739.136638005,
        "Time(s)": 0
    },
    {
        "Altitude(m)": 612708.3179404995,
        "Argument of Periapsis(deg)": 0.00010418945913296404,
        "Eccentricity": 0.0,
        "Inclination(deg)": 60.0,
        "Latitude(deg)": -28.64776111399801,
        "Longitude(deg)": -131.72969524596965,
        "Mean Anomaly(deg)": 213.34740614546186,
        "RAAN(deg)": 129.99957995086024,
        "Satellite Name": "Test1 585",
        "Satellite Number": 585,
        "Semi-Major Axis(m)": 6980739.136638005,
        "Time(s)": 10
    }
]